[{"id":1,"name":"Clarisse Varlow","address":"6706 West Lane","city":"Akron","state":"Ohio","postalcode":"44393"},
{"id":2,"name":"Bertina Aartsen","address":"18 Sheridan Alley","city":"Washington","state":"District of Columbia","postalcode":"20380"},
{"id":3,"name":"Celina Sturror","address":"70 Eggendart Parkway","city":"San Francisco","state":"California","postalcode":"94159"},
{"id":4,"name":"Garner Slayny","address":"9 Claremont Place","city":"Bronx","state":"New York","postalcode":"10464"},
{"id":5,"name":"Marrissa Yelden","address":"2756 Moose Hill","city":"Springfield","state":"Illinois","postalcode":"62794"},
{"id":6,"name":"Salomone Pyford","address":"51 Lotheville Court","city":"Lima","state":"Ohio","postalcode":"45807"},
{"id":7,"name":"Stephannie Durant","address":"952 Coleman Alley","city":"Albany","state":"New York","postalcode":"12227"},
{"id":8,"name":"Dania Kingdom","address":"037 West Circle","city":"Boston","state":"Massachusetts","postalcode":"02163"},
{"id":9,"name":"Eduard Seres","address":"2278 Dayton Way","city":"Trenton","state":"New Jersey","postalcode":"08695"},
{"id":10,"name":"Shermie Chatters","address":"6155 Bellgrove Point","city":"Fresno","state":"California","postalcode":"93794"},
{"id":11,"name":"Justinn Rogerson","address":"463 Homewood Place","city":"Lancaster","state":"Pennsylvania","postalcode":"17605"},
{"id":12,"name":"Livia Braley","address":"4297 Mayer Center","city":"Washington","state":"District of Columbia","postalcode":"20442"},
{"id":13,"name":"Joy Alanbrooke","address":"6 Vera Court","city":"Pittsburgh","state":"Pennsylvania","postalcode":"15286"},
{"id":14,"name":"Krystyna Orgee","address":"8470 Armistice Trail","city":"Vero Beach","state":"Florida","postalcode":"32964"},
{"id":15,"name":"Emmy Abotson","address":"3 Jenna Trail","city":"Des Moines","state":"Iowa","postalcode":"50362"},
{"id":16,"name":"Agatha Buye","address":"2992 Heffernan Point","city":"Atlanta","state":"Georgia","postalcode":"30306"},
{"id":17,"name":"Matilde Whatman","address":"1 Ridgeview Avenue","city":"Birmingham","state":"Alabama","postalcode":"35279"},
{"id":18,"name":"Cortie Sheppey","address":"097 Corben Road","city":"Las Vegas","state":"Nevada","postalcode":"89125"},
{"id":19,"name":"Borden Alfonsetti","address":"40 Dovetail Park","city":"Inglewood","state":"California","postalcode":"90310"},
{"id":20,"name":"Katinka Proby","address":"8 Dorton Plaza","city":"Saginaw","state":"Michigan","postalcode":"48609"},
{"id":21,"name":"Danny Partleton","address":"02858 Oakridge Street","city":"Colorado Springs","state":"Colorado","postalcode":"80951"},
{"id":22,"name":"Marylin Hainsworth","address":"479 Harper Center","city":"Roanoke","state":"Virginia","postalcode":"24040"},
{"id":23,"name":"Mada Grinsdale","address":"181 Del Sol Drive","city":"Laurel","state":"Maryland","postalcode":"20709"},
{"id":24,"name":"Bird Argile","address":"128 Hermina Park","city":"Bonita Springs","state":"Florida","postalcode":"34135"},
{"id":25,"name":"Kirsten Redfield","address":"7 Cordelia Lane","city":"Norfolk","state":"Virginia","postalcode":"23504"},
{"id":26,"name":"Alejandra Horrigan","address":"56125 Dovetail Park","city":"Gilbert","state":"Arizona","postalcode":"85297"},
{"id":27,"name":"Kahlil Scholar","address":"91562 2nd Trail","city":"Wichita Falls","state":"Texas","postalcode":"76305"},
{"id":28,"name":"Patin Pickless","address":"136 Golf Course Lane","city":"Sacramento","state":"California","postalcode":"95818"},
{"id":29,"name":"Natka Andrichak","address":"51 Village Crossing","city":"New Orleans","state":"Louisiana","postalcode":"70183"},
{"id":30,"name":"Ranique Melsome","address":"00245 Express Way","city":"New Orleans","state":"Louisiana","postalcode":"70187"},
{"id":31,"name":"Emmit Sollner","address":"6 Johnson Court","city":"Roanoke","state":"Virginia","postalcode":"24014"},
{"id":32,"name":"Ransom Milhench","address":"6603 1st Lane","city":"Clearwater","state":"Florida","postalcode":"34615"},
{"id":33,"name":"Devan Colbrun","address":"6653 West Place","city":"Carson City","state":"Nevada","postalcode":"89714"},
{"id":34,"name":"Xymenes Swynley","address":"715 Waywood Hill","city":"San Francisco","state":"California","postalcode":"94147"},
{"id":35,"name":"Jamison Rickersy","address":"7 Melby Hill","city":"Los Angeles","state":"California","postalcode":"90065"},
{"id":36,"name":"Teodorico Duckels","address":"81 Ramsey Crossing","city":"Norfolk","state":"Virginia","postalcode":"23514"},
{"id":37,"name":"Yvon Dewhirst","address":"7906 Hazelcrest Parkway","city":"Seattle","state":"Washington","postalcode":"98133"},
{"id":38,"name":"Sayer Anfusso","address":"08 Eagle Crest Point","city":"Dallas","state":"Texas","postalcode":"75358"},
{"id":39,"name":"Sinclare Kochlin","address":"38979 Annamark Trail","city":"Dearborn","state":"Michigan","postalcode":"48126"},
{"id":40,"name":"Shelia McKinnon","address":"1 Becker Street","city":"Chicago","state":"Illinois","postalcode":"60636"},
{"id":41,"name":"Lazar Hinkensen","address":"2174 Old Gate Junction","city":"Boston","state":"Massachusetts","postalcode":"02163"},
{"id":42,"name":"Wyatt Bartolini","address":"34704 Summit Plaza","city":"Brooklyn","state":"New York","postalcode":"11236"},
{"id":43,"name":"Candie Greasty","address":"851 Becker Terrace","city":"Birmingham","state":"Alabama","postalcode":"35279"},
{"id":44,"name":"Dorie Keay","address":"794 Butterfield Hill","city":"San Diego","state":"California","postalcode":"92105"},
{"id":45,"name":"Mirella O'Roan","address":"90 Barnett Place","city":"Racine","state":"Wisconsin","postalcode":"53405"},
{"id":46,"name":"Tanitansy McReath","address":"02 Forster Street","city":"Sacramento","state":"California","postalcode":"95865"},
{"id":47,"name":"Nicola Fosher","address":"11095 Merry Trail","city":"Jacksonville","state":"Florida","postalcode":"32220"},
{"id":48,"name":"Maddy Terne","address":"2329 Monica Alley","city":"Anaheim","state":"California","postalcode":"92805"},
{"id":49,"name":"Adelbert Strippel","address":"917 Northridge Trail","city":"Evansville","state":"Indiana","postalcode":"47712"},
{"id":50,"name":"Pippy Semerad","address":"68050 Park Meadow Avenue","city":"Greensboro","state":"North Carolina","postalcode":"27499"}]